[
    {
        "Altitude(m)": 557534.706547719,
        "Argument of Periapsis(deg)": 0.019868973332140504,
        "Eccentricity": 0.0,
        "Inclination(deg)": 53.0,
        "Latitude(deg)": -15.533893320885545,
        "Longitude(deg)": 114.64322177596009,
        "Mean Anomaly(deg)": 199.36577860273277,
        "RAAN(deg)": 24.970430105584054,
        "Satellite Name": "Starlink Shell 1 120",
        "Satellite Number": 120,
        "Semi-Major Axis(m)": 6931778.249405717,
        "Time(s)": 570
    },
    {
        "Altitude(m)": 557677.4875398732,
        "Argument of Periapsis(deg)": 0.02021755181165174,
        "Eccentricity": 0.0,
        "Inclination(deg)": 53.0,
        "Latitude(deg)": -16.025647275396896,
        "Longitude(deg)": 115.00812984270698,
        "Mean Anomaly(deg)": 199.99260980628947,
        "RAAN(deg)": 24.969911335506577,
        "Satellite Name": "Starlink Shell 1 120",
        "Satellite Number": 120,
        "Semi-Major Axis(m)": 6931778.249405717,
        "Time(s)": 580
    },
    {
        "Altitude(m)": 557822.1476944908,
        "Argument of Periapsis(deg)": 0.020566130291162974,
        "Eccentricity": 0.0,
        "Inclination(deg)": 53.0,
        "Latitude(deg)": -16.516592283005252,
        "Longitude(deg)": 115.37501816108474,
        "Mean Anomaly(deg)": 200.61944100984618,
        "RAAN(deg)": 24.969392565429107,
        "Satellite Name": "Starlink Shell 1 120",
        "Satellite Number": 120,
        "Semi-Major Axis(m)": 6931778.249405717,
        "Time(s)": 590
    },
    {
        "Altitude(m)": 557968.6393114758,
        "Argument of Periapsis(deg)": 0.020914708770674213,
        "Eccentricity": 0.0,
        "Inclination(deg)": 53.0,
        "Latitude(deg)": -17.00669886197429,
        "Longitude(deg)": 115.74395768898063,
        "Mean Anomaly(deg)": 201.2462722134029,
        "RAAN(deg)": 24.96887379535163,
        "Satellite Name": "Starlink Shell 1 120",
        "Satellite Number": 120,
        "Semi-Major Axis(m)": 6931778.249405717,
        "Time(s)": 600
    },
    {
        "Altitude(m)": 558116.9137259118,
        "Argument of Periapsis(deg)": 0.021263287250185448,
        "Eccentricity": 0.0,
        "Inclination(deg)": 53.0,
        "Latitude(deg)": -17.49593708031467,
        "Longitude(deg)": 116.11502023829108,
        "Mean Anomaly(deg)": 201.8731034169596,
        "RAAN(deg)": 24.96835502527416,
        "Satellite Name": "Starlink Shell 1 120",
        "Satellite Number": 120,
        "Semi-Major Axis(m)": 6931778.249405717,
        "Time(s)": 610
    },
    {
        "Altitude(m)": 558266.921329464,
        "Argument of Periapsis(deg)": 0.021611865729696686,
        "Eccentricity": 0.0,
        "Inclination(deg)": 53.0,
        "Latitude(deg)": -17.98427653763798,
        "Longitude(deg)": 116.4882790055394,
        "Mean Anomaly(deg)": 202.49993462051637,
        "RAAN(deg)": 24.967836255196683,
        "Satellite Name": "Starlink Shell 1 120",
        "Satellite Number": 120,
        "Semi-Major Axis(m)": 6931778.249405717,
        "Time(s)": 620
    },
    {
        "Altitude(m)": 558418.6115922949,
        "Argument of Periapsis(deg)": 0.02196044420920792,
        "Eccentricity": 0.0,
        "Inclination(deg)": 53.0,
        "Latitude(deg)": -18.471686346607687,
        "Longitude(deg)": 116.86380742135512,
        "Mean Anomaly(deg)": 203.12676582407306,
        "RAAN(deg)": 24.967317485119214,
        "Satellite Name": "Starlink Shell 1 120",
        "Satellite Number": 120,
        "Semi-Major Axis(m)": 6931778.249405717,
        "Time(s)": 630
    },
    {
        "Altitude(m)": 558571.9330854053,
        "Argument of Periapsis(deg)": 0.02230902268871916,
        "Eccentricity": 0.0,
        "Inclination(deg)": 53.0,
        "Latitude(deg)": -18.95813511398,
        "Longitude(deg)": 117.2416805212014,
        "Mean Anomaly(deg)": 203.75359702762978,
        "RAAN(deg)": 24.96679871504174,
        "Satellite Name": "Starlink Shell 1 120",
        "Satellite Number": 120,
        "Semi-Major Axis(m)": 6931778.249405717,
        "Time(s)": 640
    },
    {
        "Altitude(m)": 558726.8335034065,
        "Argument of Periapsis(deg)": 0.022657601168230398,
        "Eccentricity": 0.0,
        "Inclination(deg)": 53.0,
        "Latitude(deg)": -19.443590921218348,
        "Longitude(deg)": 117.62197379439581,
        "Mean Anomaly(deg)": 204.38042823118653,
        "RAAN(deg)": 24.966279944964267,
        "Satellite Name": "Starlink Shell 1 120",
        "Satellite Number": 120,
        "Semi-Major Axis(m)": 6931778.249405717,
        "Time(s)": 650
    },
    {
        "Altitude(m)": 558883.2596877296,
        "Argument of Periapsis(deg)": 0.023006179647741636,
        "Eccentricity": 0.0,
        "Inclination(deg)": 53.0,
        "Latitude(deg)": -19.928021304674573,
        "Longitude(deg)": 118.00476371380257,
        "Mean Anomaly(deg)": 205.00725943474316,
        "RAAN(deg)": 24.965761174886797,
        "Satellite Name": "Starlink Shell 1 120",
        "Satellite Number": 120,
        "Semi-Major Axis(m)": 6931778.249405717,
        "Time(s)": 660
    },
    {
        "Altitude(m)": 559041.1576502393,
        "Argument of Periapsis(deg)": 0.023354758127252868,
        "Eccentricity": 0.0,
        "Inclination(deg)": 53.0,
        "Latitude(deg)": -20.41139323532396,
        "Longitude(deg)": 118.39012826517242,
        "Mean Anomaly(deg)": 205.63409063829988,
        "RAAN(deg)": 24.96524240480932,
        "Satellite Name": "Starlink Shell 1 120",
        "Satellite Number": 120,
        "Semi-Major Axis(m)": 6931778.249405717,
        "Time(s)": 670
    },
    {
        "Altitude(m)": 559200.4725972416,
        "Argument of Periapsis(deg)": 0.023703336606764106,
        "Eccentricity": 0.0,
        "Inclination(deg)": 53.0,
        "Latitude(deg)": -20.893673098043067,
        "Longitude(deg)": 118.77814596320006,
        "Mean Anomaly(deg)": 206.26092184185663,
        "RAAN(deg)": 24.96472363473185,
        "Satellite Name": "Starlink Shell 1 120",
        "Satellite Number": 120,
        "Semi-Major Axis(m)": 6931778.249405717,
        "Time(s)": 680
    },
    {
        "Altitude(m)": 559361.1489538995,
        "Argument of Periapsis(deg)": 0.024051915086275345,
        "Eccentricity": 0.0,
        "Inclination(deg)": 53.0,
        "Latitude(deg)": -21.374826670422873,
        "Longitude(deg)": 119.16889637998095,
        "Mean Anomaly(deg)": 206.88775304541335,
        "RAAN(deg)": 24.96420486465438,
        "Satellite Name": "Starlink Shell 1 120",
        "Satellite Number": 120,
        "Semi-Major Axis(m)": 6931778.249405717,
        "Time(s)": 690
    },
    {
        "Altitude(m)": 559523.1303889793,
        "Argument of Periapsis(deg)": 0.024400493565786583,
        "Eccentricity": 0.0,
        "Inclination(deg)": 53.0,
        "Latitude(deg)": -21.854819101106738,
        "Longitude(deg)": 119.56246067292594,
        "Mean Anomaly(deg)": 207.51458424897007,
        "RAAN(deg)": 24.963686094576904,
        "Satellite Name": "Starlink Shell 1 120",
        "Satellite Number": 120,
        "Semi-Major Axis(m)": 6931778.249405717,
        "Time(s)": 700
    },
    {
        "Altitude(m)": 559686.3598400095,
        "Argument of Periapsis(deg)": 0.024749072045297815,
        "Eccentricity": 0.0,
        "Inclination(deg)": 53.0,
        "Latitude(deg)": -22.333614887642614,
        "Longitude(deg)": 119.95892059918447,
        "Mean Anomaly(deg)": 208.14141545252676,
        "RAAN(deg)": 24.96316732449943,
        "Satellite Name": "Starlink Shell 1 120",
        "Satellite Number": 120,
        "Semi-Major Axis(m)": 6931778.249405717,
        "Time(s)": 710
    },
    {
        "Altitude(m)": 559850.7795387633,
        "Argument of Periapsis(deg)": 0.025097650524809053,
        "Eccentricity": 0.0,
        "Inclination(deg)": 53.0,
        "Latitude(deg)": -22.81117785384537,
        "Longitude(deg)": 120.35835904224167,
        "Mean Anomaly(deg)": 208.76824665608345,
        "RAAN(deg)": 24.96264855442196,
        "Satellite Name": "Starlink Shell 1 120",
        "Satellite Number": 120,
        "Semi-Major Axis(m)": 6931778.249405717,
        "Time(s)": 720
    },
    {
        "Altitude(m)": 560016.3310370526,
        "Argument of Periapsis(deg)": 0.02544622900432029,
        "Eccentricity": 0.0,
        "Inclination(deg)": 53.0,
        "Latitude(deg)": -23.2874711266593,
        "Longitude(deg)": 120.76086053772495,
        "Mean Anomaly(deg)": 209.39507785964022,
        "RAAN(deg)": 24.962129784344487,
        "Satellite Name": "Starlink Shell 1 120",
        "Satellite Number": 120,
        "Semi-Major Axis(m)": 6931778.249405717,
        "Time(s)": 730
    },
    {
        "Altitude(m)": 560182.9552328964,
        "Argument of Periapsis(deg)": 0.02579480748383153,
        "Eccentricity": 0.0,
        "Inclination(deg)": 53.0,
        "Latitude(deg)": -23.76245711251391,
        "Longitude(deg)": 121.16651028545274,
        "Mean Anomaly(deg)": 210.02190906319694,
        "RAAN(deg)": 24.961611014267014,
        "Satellite Name": "Starlink Shell 1 120",
        "Satellite Number": 120,
        "Semi-Major Axis(m)": 6931778.249405717,
        "Time(s)": 740
    },
    {
        "Altitude(m)": 560350.5923969592,
        "Argument of Periapsis(deg)": 0.026143385963342765,
        "Eccentricity": 0.0,
        "Inclination(deg)": 53.0,
        "Latitude(deg)": -24.23609747317067,
        "Longitude(deg)": 121.57539467336508,
        "Mean Anomaly(deg)": 210.64874026675363,
        "RAAN(deg)": 24.961092244189537,
        "Satellite Name": "Starlink Shell 1 120",
        "Satellite Number": 120,
        "Semi-Major Axis(m)": 6931778.249405717,
        "Time(s)": 750
    }
]